[Satellite]
VERSION=1.1
NAME=IRIDIUM 149
NICKNAME=IRIDIUM 149
TLE1=1 43250U 18030B   22342.28683542  .00000278  00000+0  92274-4 0  9991
TLE2=2 43250  86.3960 108.2623 0002113 101.2319 258.9114 14.34222074245701
STATUS=0
